{"type": "FeatureCollection", "features": [ {"type": "Feature", "properties": {"norad_id": 32289, "name": "YAOGAN-3", "group": "resource", "lat": 2.9117633336126456, "lon": 3.056887202971941, "alt_km": 600.9787014011818, "timestamp": "2025-12-02T17:49:11.682196+00:00", "meta": {"OBJECT_NAME": "YAOGAN-3", "OBJECT_ID": "2007-055A", "EPOCH": "2025-12-02T12:58:15.037248", "MEAN_MOTION": 14.89777009, "ECCENTRICITY": 0.0001519, "INCLINATION": 97.8378, "RA_OF_ASC_NODE": 3.2581, "ARG_OF_PERICENTER": 77.4412, "MEAN_ANOMALY": 282.6975, "EPHEMERIS_TYPE": 0, "CLASSIFICATION_TYPE": "U", "NORAD_CAT_ID": 32289, "ELEMENT_SET_NO": 999, "REV_AT_EPOCH": 97657, "BSTAR": 0.00033933, "MEAN_MOTION_DOT": 3.199e-05, "MEAN_MOTION_DDOT": 0}, "tle": {"line1": "1 32289U 07055A   25336.54045182  .00003199  00000+0  33933-3 0  9994", "line2": "2 32289  97.8378   3.2581 0001519  77.4412 282.6975 14.89777009976573"}}, "geometry": {"type": "Point", "coordinates": [3.056887202971941, 2.9117633336126456]}}, {"type": "Feature", "properties": {"norad_id": 32376, "name": "COSMO-SKYMED 2", "group": "resource", "lat": -17.51365928275476, "lon": -24.28862021674055, "alt_km": 627.873650975278, "timestamp": "2025-12-02T17:49:11.682206+00:00", "meta": {"OBJECT_NAME": "COSMO-SKYMED 2", "OBJECT_ID": "2007-059A", "EPOCH": "2025-12-02T12:04:14.251008", "MEAN_MOTION": 14.82145028, "ECCENTRICITY": 0.0001539, "INCLINATION": 97.8805, "RA_OF_ASC_NODE": 157.9806, "ARG_OF_PERICENTER": 91.003, "MEAN_ANOMALY": 269.1359, "EPHEMERIS_TYPE": 0, "CLASSIFICATION_TYPE": "U", "NORAD_CAT_ID": 32376, "ELEMENT_SET_NO": 999, "REV_AT_EPOCH": 97286, "BSTAR": 0.00011111, "MEAN_MOTION_DOT": 8.32e-06, "MEAN_MOTION_DDOT": 0}, "tle": {"line1": "1 32376U 07059A   25336.50294272  .00000832  00000+0  11111-3 0  9992", "line2": "2 32376  97.8805 157.9806 0001539  91.0030 269.1359 14.82145028972869"}}, "geometry": {"type": "Point", "coordinates": [-24.28862021674055, -17.51365928275476]}}, {"type": "Feature", "properties": {"norad_id": 32382, "name": "RADARSAT-2", "group": "resource", "lat": -40.51580821093734, "lon": 154.06508112677386, "alt_km": 798.799603348335, "timestamp": "2025-12-02T17:49:11.682217+00:00", "meta": {"OBJECT_NAME": "RADARSAT-2", "OBJECT_ID": "2007-061A", "EPOCH": "2025-12-02T13:25:52.191840", "MEAN_MOTION": 14.29983253, "ECCENTRICITY": 0.0001083, "INCLINATION": 98.58, "RA_OF_ASC_NODE": 341.2977, "ARG_OF_PERICENTER": 90.1665, "MEAN_ANOMALY": 269.9642, "EPHEMERIS_TYPE": 0, "CLASSIFICATION_TYPE": "U", "NORAD_CAT_ID": 32382, "ELEMENT_SET_NO": 999, "REV_AT_EPOCH": 93785, "BSTAR": 6.721e-05, "MEAN_MOTION_DOT": 1.3e-06, "MEAN_MOTION_DDOT": 0}, "tle": {"line1": "1 32382U 07061A   25336.55963185  .00000130  00000+0  67210-4 0  9996", "line2": "2 32382  98.5800 341.2977 0001083  90.1665 269.9642 14.29983253937858"}}, "geometry": {"type": "Point", "coordinates": [154.06508112677386, -40.51580821093734]}}, {"type": "Feature", "properties": {"norad_id": 32783, "name": "CARTOSAT-2A", "group": "resource", "lat": 81.39133302672168, "lon": -88.326586680713, "alt_km": 620.6459101164291, "timestamp": "2025-12-02T17:49:11.682227+00:00", "meta": {"OBJECT_NAME": "CARTOSAT-2A", "OBJECT_ID": "2008-021A", "EPOCH": "2025-12-02T12:31:39.177408", "MEAN_MOTION": 14.78905455, "ECCENTRICITY": 0.0012545, "INCLINATION": 97.7945, "RA_OF_ASC_NODE": 26.6642, "ARG_OF_PERICENTER": 36.547, "MEAN_ANOMALY": 323.6596, "EPHEMERIS_TYPE": 0, "CLASSIFICATION_TYPE": "U", "NORAD_CAT_ID": 32783, "ELEMENT_SET_NO": 999, "REV_AT_EPOCH": 94973, "BSTAR": 0.00017866, "MEAN_MOTION_DOT": 1.268e-05, "MEAN_MOTION_DDOT": 0}, "tle": {"line1": "1 32783U 08021A   25336.52198122  .00001268  00000+0  17866-3 0  9990", "line2": "2 32783  97.7945  26.6642 0012545  36.5470 323.6596 14.78905455949738"}}, "geometry": {"type": "Point", "coordinates": [-88.326586680713, 81.39133302672168]}}, {"type": "Feature", "properties": {"norad_id": 33320, "name": "HUANJING 1A (HJ-1A)", "group": "resource", "lat": 20.252921802851112, "lon": 148.3031913399754, "alt_km": 619.8853497448554, "timestamp": "2025-12-02T17:49:11.682238+00:00", "meta": {"OBJECT_NAME": "HUANJING 1A (HJ-1A)", "OBJECT_ID": "2008-041A", "EPOCH": "2025-12-02T12:14:54.784320", "MEAN_MOTION": 14.83341563, "ECCENTRICITY": 0.002068, "INCLINATION": 97.6535, "RA_OF_ASC_NODE": 325.2368, "ARG_OF_PERICENTER": 66.0297, "MEAN_ANOMALY": 294.308, "EPHEMERIS_TYPE": 0, "CLASSIFICATION_TYPE": "U", "NORAD_CAT_ID": 33320, "ELEMENT_SET_NO": 999, "REV_AT_EPOCH": 92924, "BSTAR": 0.00025021, "MEAN_MOTION_DOT": 2.006e-05, "MEAN_MOTION_DDOT": 0}, "tle": {"line1": "1 33320U 08041A   25336.51035630  .00002006  00000+0  25021-3 0  9996", "line2": "2 33320  97.6535 325.2368 0020680  66.0297 294.3080 14.83341563929243"}}, "geometry": {"type": "Point", "coordinates": [148.3031913399754, 20.252921802851112]}}, {"type": "Feature", "properties": {"norad_id": 33321, "name": "HUANJING 1B (HJ-1B)", "group": "resource", "lat": 39.84405976089293, "lon": -37.248564737494206, "alt_km": 606.9832357502237, "timestamp": "2025-12-02T17:49:11.682248+00:00", "meta": {"OBJECT_NAME": "HUANJING 1B (HJ-1B)", "OBJECT_ID": "2008-041B", "EPOCH": "2025-12-02T12:46:48.766368", "MEAN_MOTION": 14.8277821, "ECCENTRICITY": 0.0038146, "INCLINATION": 97.6395, "RA_OF_ASC_NODE": 328.9816, "ARG_OF_PERICENTER": 108.0171, "MEAN_ANOMALY": 252.5206, "EPHEMERIS_TYPE": 0, "CLASSIFICATION_TYPE": "U", "NORAD_CAT_ID": 33321, "ELEMENT_SET_NO": 999, "REV_AT_EPOCH": 92926, "BSTAR": 0.00019968, "MEAN_MOTION_DOT": 1.583e-05, "MEAN_MOTION_DDOT": 0}, "tle": {"line1": "1 33321U 08041B   25336.53250887  .00001583  00000+0  19968-3 0  9994", "line2": "2 33321  97.6395 328.9816 0038146 108.0171 252.5206 14.82778210929260"}}, "geometry": {"type": "Point", "coordinates": [-37.248564737494206, 39.84405976089293]}}, {"type": "Feature", "properties": {"norad_id": 33331, "name": "GEOEYE 1", "group": "resource", "lat": -46.06719076887007, "lon": 56.676727343109256, "alt_km": 682.4000233133402, "timestamp": "2025-12-02T17:49:11.682258+00:00", "meta": {"OBJECT_NAME": "GEOEYE 1", "OBJECT_ID": "2008-042A", "EPOCH": "2025-12-02T11:28:29.048736", "MEAN_MOTION": 14.64789372, "ECCENTRICITY": 0.0003022, "INCLINATION": 98.1265, "RA_OF_ASC_NODE": 47.8865, "ARG_OF_PERICENTER": 321.0556, "MEAN_ANOMALY": 39.0429, "EPHEMERIS_TYPE": 0, "CLASSIFICATION_TYPE": "U", "NORAD_CAT_ID": 33331, "ELEMENT_SET_NO": 999, "REV_AT_EPOCH": 92135, "BSTAR": 0.00017215, "MEAN_MOTION_DOT": 8.7e-06, "MEAN_MOTION_DDOT": 0}, "tle": {"line1": "1 33331U 08042A   25336.47811399  .00000870  00000+0  17215-3 0  9991", "line2": "2 33331  98.1265  47.8865 0003022 321.0556  39.0429 14.64789372921351"}}, "geometry": {"type": "Point", "coordinates": [56.676727343109256, -46.06719076887007]}}, {"type": "Feature", "properties": {"norad_id": 33396, "name": "THEOS", "group": "resource", "lat": -23.198042858002356, "lon": 38.839706963909634, "alt_km": 830.861621604774, "timestamp": "2025-12-02T17:49:11.682269+00:00", "meta": {"OBJECT_NAME": "THEOS", "OBJECT_ID": "2008-049A", "EPOCH": "2025-12-02T11:09:58.592736", "MEAN_MOTION": 14.20092824, "ECCENTRICITY": 0.000109, "INCLINATION": 98.5882, "RA_OF_ASC_NODE": 34.8573, "ARG_OF_PERICENTER": 100.6922, "MEAN_ANOMALY": 259.4378, "EPHEMERIS_TYPE": 0, "CLASSIFICATION_TYPE": "U", "NORAD_CAT_ID": 33396, "ELEMENT_SET_NO": 999, "REV_AT_EPOCH": 89004, "BSTAR": 6.8748e-05, "MEAN_MOTION_DOT": 1.04e-06, "MEAN_MOTION_DDOT": 0}, "tle": {"line1": "1 33396U 08049A   25336.46526149  .00000104  00000+0  68748-4 0  9992", "line2": "2 33396  98.5882  34.8573 0001090 100.6922 259.4378 14.20092824890047"}}, "geometry": {"type": "Point", "coordinates": [38.839706963909634, -23.198042858002356]}}, {"type": "Feature", "properties": {"norad_id": 33412, "name": "COSMO-SKYMED 3", "group": "resource", "lat": -62.18626406709806, "lon": -8.188971787843487, "alt_km": 549.4871094931395, "timestamp": "2025-12-02T17:49:11.682279+00:00", "meta": {"OBJECT_NAME": "COSMO-SKYMED 3", "OBJECT_ID": "2008-054A", "EPOCH": "2025-12-02T13:33:06.897888", "MEAN_MOTION": 15.05200387, "ECCENTRICITY": 0.0015318, "INCLINATION": 97.8474, "RA_OF_ASC_NODE": 186.7857, "ARG_OF_PERICENTER": 207.7552, "MEAN_ANOMALY": 152.2858, "EPHEMERIS_TYPE": 0, "CLASSIFICATION_TYPE": "U", "NORAD_CAT_ID": 33412, "ELEMENT_SET_NO": 999, "REV_AT_EPOCH": 92734, "BSTAR": 0.00038655, "MEAN_MOTION_DOT": 5.464e-05, "MEAN_MOTION_DDOT": 0}, "tle": {"line1": "1 33412U 08054A   25336.56466317  .00005464  00000+0  38655-3 0  9995", "line2": "2 33412  97.8474 186.7857 0015318 207.7552 152.2858 15.05200387927349"}}, "geometry": {"type": "Point", "coordinates": [-8.188971787843487, -62.18626406709806]}}, {"type": "Feature", "properties": {"norad_id": 33446, "name": "YAOGAN-4", "group": "resource", "lat": -42.392963456423765, "lon": -85.76102389485978, "alt_km": 619.847989939728, "timestamp": "2025-12-02T17:49:11.682289+00:00", "meta": {"OBJECT_NAME": "YAOGAN-4", "OBJECT_ID": "2008-061A", "EPOCH": "2025-12-02T09:54:49.934880", "MEAN_MOTION": 14.82629216, "ECCENTRICITY": 0.0014484, "INCLINATION": 97.9168, "RA_OF_ASC_NODE": 266.6147, "ARG_OF_PERICENTER": 357.7932, "MEAN_ANOMALY": 2.3215, "EPHEMERIS_TYPE": 0, "CLASSIFICATION_TYPE": "U", "NORAD_CAT_ID": 33446, "ELEMENT_SET_NO": 999, "REV_AT_EPOCH": 91650, "BSTAR": 0.00026593, "MEAN_MOTION_DOT": 2.092e-05, "MEAN_MOTION_DDOT": 0}, "tle": {"line1": "1 33446U 08061A   25336.41307795  .00002092  00000+0  26593-3 0  9990", "line2": "2 33446  97.9168 266.6147 0014484 357.7932   2.3215 14.82629216916506"}}, "geometry": {"type": "Point", "coordinates": [-85.76102389485978, -42.392963456423765]}}]}